COMMENT,ORIGINATOR,NORAD_CAT_ID,OBJECT_NAME,OBJECT_TYPE,CLASSIFICATION_TYPE,INTLDES,EPOCH,EPOCH_MICROSECONDS,MEAN_MOTION,ECCENTRICITY,INCLINATION,RA_OF_ASC_NODE,ARG_OF_PERICENTER,MEAN_ANOMALY,EPHEMERIS_TYPE,ELEMENT_SET_NO,REV_AT_EPOCH,BSTAR,MEAN_MOTION_DOT,MEAN_MOTION_DDOT,FILE,TLE_LINE0,TLE_LINE1,TLE_LINE2,OBJECT_ID,OBJECT_NUMBER,SEMIMAJOR_AXIS,PERIOD,APOGEE,PERIGEE,DECAYED
"GENERATED VIA SPACETRACK.ORG API","18 SPCS","12345","COSMOS 1174 DEB","DEBRIS","U","80030T","1989-11-20 03:30:52","867007","14.46319213","0.0454251","66.0527","215.5341","70.9414","294.0215","0","999","94020","0.0049196","0.00066913","0","131042","0 COSMOS 1174 DEB","1 12345U 80030  T 89324.14644522  .00066913 +00000-0 +49196-2 0  9996","2 12345 066.0527 215.5341 0454251 070.9414 294.0215 14.46319213940202","1980-030T","12345","7115.837","99.563","1060.940","414.465","1"
"GENERATED VIA SPACETRACK.ORG API","18 SPCS","12345","COSMOS 1174 DEB","DEBRIS","U","80030T","1989-11-19 02:37:11","701344","14.46186184","0.045555","66.0506","218.3964","71.4996","293.5033","0","999","94005","0.0049358","0.00067712","0","34686","0 COSMOS 1174 DEB","1 12345U 80030  T 89323.10916321  .00067712 +00000-0 +49358-2 0  9998","2 12345 066.0506 218.3964 0455550 071.4996 293.5033 14.46186184940059","1980-030T","12345","7116.274","99.572","1062.321","413.957","1"
"GENERATED VIA SPACETRACK.ORG API","18 SPCS","12345","COSMOS 1174 DEB","DEBRIS","U","80030T","1989-11-18 03:22:56","197344","14.46065022","0.0455177","66.0501","221.0744","72.1018","292.8834","0","999","93991","0.0050174","0.00068404","0","34686","0 COSMOS 1174 DEB","1 12345U 80030  T 89322.14092821  .00068404 +00000-0 +50174-2 0  9998","2 12345 066.0501 221.0744 0455177 072.1018 292.8834 14.46065022939910","1980-030T","12345","7116.671","99.581","1062.471","414.602","1"
"GENERATED VIA SPACETRACK.ORG API","18 SPCS","12345","COSMOS 1174 DEB","DEBRIS","U","80030T","1989-11-18 03:22:56","743391","14.46063583","0.0455089","66.0497","221.0742","72.0641","292.942","0","999","93991","0.0050125","0.00068295","0","34686","0 COSMOS 1174 DEB","1 12345U 80030  T 89322.14093453  .00068295 +00000-0 +50125-2 0  9994","2 12345 066.0497 221.0742 0455089 072.0641 292.9420 14.46063583939917","1980-030T","12345","7116.676","99.581","1062.413","414.669","1"
"GENERATED VIA SPACETRACK.ORG API","18 SPCS","12345","COSMOS 1174 DEB","DEBRIS","U","80030T","1989-11-17 17:25:20","951615","14.46017377","0.0456178","66.0532","222.2223","72.5289","292.4345","0","999","93985","0.0050428","0.00069075","0","34686","0 COSMOS 1174 DEB","1 12345U 80030  T 89321.72593694  .00069075 +00000-0 +50428-2 0  9992","2 12345 066.0532 222.2223 0456178 072.5289 292.4345 14.46017377939851","1980-030T","12345","7116.828","99.584","1063.347","414.039","1"
"GENERATED VIA SPACETRACK.ORG API","18 SPCS","12345","COSMOS 1174 DEB","DEBRIS","U","80030T","1989-11-17 04:08:34","210751","14.45948017","0.0454952","66.0534","223.7545","72.9772","292.0514","0","999","93977","0.0051319","0.0006925","0","131042","0 COSMOS 1174 DEB","1 12345U 80030  T 89321.17261818  .00069250 +00000-0 +51319-2 0  9996","2 12345 066.0534 223.7545 0454952 072.9772 292.0514 14.45948017939773","1980-030T","12345","7117.055","99.589","1062.712","415.128","1"
"GENERATED VIA SPACETRACK.ORG API","18 SPCS","12345","COSMOS 1174 DEB","DEBRIS","U","80030T","1989-11-15 17:16:50","437344","14.4575262","0.0456231","66.052","227.7646","73.9482","291.1847","0","999","93956","0.0051646","0.00070158","0","34686","0 COSMOS 1174 DEB","1 12345U 80030  T 89319.72002821  .00070158 +00000-0 +51646-2 0  9993","2 12345 066.0520 227.7646 0456231 073.9482 291.1847 14.45752620939564","1980-030T","12345","7117.696","99.602","1064.293","414.830","1"
"GENERATED VIA SPACETRACK.ORG API","18 SPCS","12345","COSMOS 1174 DEB","DEBRIS","U","80030T","1989-11-15 00:40:40","470816","14.45651261","0.0457328","66.0534","229.6806","74.2873","290.8294","0","999","93946","0.005106","0.00069244","0","131042","0 COSMOS 1174 DEB","1 12345U 80030  T 89319.02824619  .00069244 +00000-0 +51060-2 0  9997","2 12345 066.0534 229.6806 0457328 074.2873 290.8294 14.45651261939464","1980-030T","12345","7118.029","99.609","1065.422","414.367","1"
"GENERATED VIA SPACETRACK.ORG API","18 SPCS","12345","COSMOS 1174 DEB","DEBRIS","U","80030T","1989-11-13 03:50:40","977599","14.45388716","0.0457992","66.0509","234.8424","75.4587","289.6853","0","999","93919","0.0050796","0.00068569","0","131042","0 COSMOS 1174 DEB","1 12345U 80030  T 89317.16019650  .00068569 +00000-0 +50796-2 0  9995","2 12345 066.0509 234.8424 0457992 075.4587 289.6853 14.45388716939191","1980-030T","12345","7118.891","99.627","1066.796","414.717","1"
"GENERATED VIA SPACETRACK.ORG API","18 SPCS","12345","COSMOS 1174 DEB","DEBRIS","U","80030T","1989-11-12 04:35:41","281727","14.45253077","0.0458588","66.0496","237.5182","76.0677","289.1122","0","999","93905","0.0050506","0.00068125","0","34686","0 COSMOS 1174 DEB","1 12345U 80030  T 89316.19145002  .00068125 +00000-0 +50506-2 0  9995","2 12345 066.0496 237.5182 0458588 076.0677 289.1122 14.45253077939056","1980-030T","12345","7119.336","99.637","1067.686","414.717","1"
"GENERATED VIA SPACETRACK.ORG API","18 SPCS","12345","COSMOS 1174 DEB","DEBRIS","U","80030T","1989-11-11 05:20:33","764063","14.45117327","0.0458971","66.0486","240.1943","76.6446","288.5686","0","999","93891","0.0050104","0.00067439","0","34686","0 COSMOS 1174 DEB","1 12345U 80030  T 89315.22261301  .00067439 +00000-0 +50104-2 0  9990","2 12345 066.0486 240.1943 0458971 076.6446 288.5686 14.45117327938915","1980-030T","12345","7119.782","99.646","1068.425","414.870","1"
"GENERATED VIA SPACETRACK.ORG API","18 SPCS","12345","COSMOS 1174 DEB","DEBRIS","U","80030T","1989-11-11 00:21:35","356319","14.45084109","0.0458788","66.0493","240.7716","76.6805","288.5082","0","999","93888","0.0049586","0.0006659","0","34686","0 COSMOS 1174 DEB","1 12345U 80030  T 89315.01499255  .00066590 +00000-0 +49586-2 0  9997","2 12345 066.0493 240.7716 0458788 076.6805 288.5082 14.45084109938889","1980-030T","12345","7119.891","99.648","1068.408","415.104","1"
"GENERATED VIA SPACETRACK.ORG API","18 SPCS","12345","COSMOS 1174 DEB","DEBRIS","U","80030T","1989-11-09 05:10:15","38976","14.44808907","0.0460839","66.0552","245.7403","77.9162","287.3383","0","999","93862","0.0041052","0.00055308","0","131042","0 COSMOS 1174 DEB","1 12345U 80030  T 89313.21545184  .00055308 +00000-0 +41052-2 0  9995","2 12345 066.0552 245.7403 0460839 077.9162 287.3383 14.44808907938625","1980-030T","12345","7120.795","99.667","1070.815","414.506","1"
"GENERATED VIA SPACETRACK.ORG API","18 SPCS","12345","COSMOS 1174 DEB","DEBRIS","U","80030T","1989-11-09 00:11:12","941951","14.4478069","0.0460288","66.0532","246.3093","77.9874","287.2485","0","999","93859","0.0040669","0.00054549","0","34686","0 COSMOS 1174 DEB","1 12345U 80030  T 89313.00778868  .00054549 +00000-0 +40669-2 0  9998","2 12345 066.0532 246.3093 0460288 077.9874 287.2485 14.44780690938599","1980-030T","12345","7120.888","99.669","1070.519","414.987","1"
"GENERATED VIA SPACETRACK.ORG API","18 SPCS","12345","COSMOS 1174 DEB","DEBRIS","U","80030T","1989-11-08 05:54:42","833376","14.44689578","0.0461284","66.0529","248.4135","78.3993","286.8652","0","999","93848","0.0039536","0.00053197","0","34686","0 COSMOS 1174 DEB","1 12345U 80030  T 89312.24632909  .00053197 +00000-0 +39536-2 0  9997","2 12345 066.0529 248.4135 0461284 078.3993 286.8652 14.44689578938481","1980-030T","12345","7121.188","99.675","1071.542","414.564","1"
"GENERATED VIA SPACETRACK.ORG API","18 SPCS","12345","COSMOS 1174 DEB","DEBRIS","U","80030T","1989-11-08 00:55:40","957536","14.44640073","0.0460505","66.0512","248.9886","78.5275","286.7338","0","999","93845","0.0036214","0.00048398","0","131042","0 COSMOS 1174 DEB","1 12345U 80030  T 89312.03866849  .00048398 +00000-0 +36214-2 0  9993","2 12345 066.0512 248.9886 0460505 078.5275 286.7338 14.44640073938455","1980-030T","12345","7121.350","99.679","1071.157","415.274","1"
"GENERATED VIA SPACETRACK.ORG API","18 SPCS","12345","COSMOS 1174 DEB","DEBRIS","U","80030T","1989-11-07 06:39:04","26816","14.44563186","0.0460698","66.0503","251.0912","79.0094","286.2668","0","999","93834","0.0035996","0.00048043","0","34686","0 COSMOS 1174 DEB","1 12345U 80030  T 89311.27712994  .00048043 +00000-0 +35996-2 0  9992","2 12345 066.0503 251.0912 0460698 079.0094 286.2668 14.44563186938346","1980-030T","12345","7121.603","99.684","1071.559","415.377","1"
"GENERATED VIA SPACETRACK.ORG API","18 SPCS","12345","COSMOS 1174 DEB","DEBRIS","U","80030T","1989-11-06 20:40:54","888096","14.44519478","0.0460466","66.0544","252.2514","79.2126","286.1481","0","999","93828","0.0035722","0.00047537","0","34686","0 COSMOS 1174 DEB","1 12345U 80030  T 89310.86174639  .00047537 +00000-0 +35722-2 0  9998","2 12345 066.0544 252.2514 0460466 079.2126 286.1481 14.44519478938283","1980-030T","12345","7121.747","99.687","1071.544","415.679","1"
"GENERATED VIA SPACETRACK.ORG API","18 SPCS","12345","COSMOS 1174 DEB","DEBRIS","U","80030T","1989-11-06 00:44:30","275807","14.44418055","0.0461547","66.0516","254.5329","79.719","285.5773","0","999","93816","0.0033567","0.0004481","0","131042","0 COSMOS 1174 DEB","1 12345U 80030  T 89310.03090597  .00044810 +00000-0 +33567-2 0  9993","2 12345 066.0516 254.5329 0461547 079.7190 285.5773 14.44418055938161","1980-030T","12345","7122.080","99.694","1072.662","415.228","1"
"GENERATED VIA SPACETRACK.ORG API","18 SPCS","12345","COSMOS 1174 DEB","DEBRIS","U","80030T","1989-11-04 23:48:52","767359","14.44316418","0.0461135","66.0512","257.399","80.3112","284.9837","0","999","93801","0.0032825","0.00043558","0","34686","0 COSMOS 1174 DEB","1 12345U 80030  T 89308.99227740  .00043558 +00000-0 +32825-2 0  9991","2 12345 066.0512 257.3990 0461135 080.3112 284.9837 14.44316418938015","1980-030T","12345","7122.414","99.701","1072.719","415.840","1"
